{
 "type": "FeatureCollection",
 "name": "patrol_graph",
 "features": [
  {
   "type": "Feature",
   "properties": {
    "id": 1
   },
   "geometry": {
    "type": "Point",
    "coordinates": [
     1.2514536380767822,
     0.05537603050470352
    ]
   }
  },
  {
   "type": "Feature",
   "properties": {
    "id": 2
   },
   "geometry": {
    "type": "Point",
    "coordinates": [
     0.8562001270134514,
     0.035230800587433386
    ]
   }
  },
  {
   "type": "Feature",
   "properties": {
    "id": 3
   },
   "geometry": {
    "type": "Point",
    "coordinates": [
     0.8700631856918335,
     0.6016367077827454
    ]
   }
  },
  {
   "type": "Feature",
   "properties": {
    "id": 4
   },
   "geometry": {
    "type": "Point",
    "coordinates": [
     1.3574949502944946,
     0.726
    ]
   }
  },
  {
   "type": "Feature",
   "properties": {
    "id": 5
   },
   "geometry": {
    "type": "Point",
    "coordinates": [
     0.9228971561953785,
     0.6118619208368258
    ]
   }
  },
  {
   "type": "Feature",
   "properties": {
    "id": 6
   },
   "geometry": {
    "type": "Point",
    "coordinates": [
     0.9278939366340637,
     1.2787638902664185
    ]
   }
  },
  {
   "type": "Feature",
   "properties": {
    "id": 7
   },
   "geometry": {
    "type": "Point",
    "coordinates": [
     1.3605363368988037,
     1.3038166761398315
    ]
   }
  },
  {
   "type": "Feature",
   "properties": {
    "id": 8
   },
   "geometry": {
    "type": "Point",
    "coordinates": [
     0.58475016466467,
     1.2588936523108134
    ]
   }
  },
  {
   "type": "Feature",
   "properties": {
    "id": 9
   },
   "geometry": {
    "type": "Point",
    "coordinates": [
     0.1943252831697464,
     1.2217328548431396
    ]
   }
  },
  {
   "type": "Feature",
   "properties": {
    "id": 10
   },
   "geometry": {
    "type": "Point",
    "coordinates": [
     0.11296285688877106,
     0.8845155239105225
    ]
   }
  },
  {
   "type": "Feature",
   "properties": {
    "id": 11
   },
   "geometry": {
    "type": "Point",
    "coordinates": [
     0.1270189881324768,
     0.6606267690658569
    ]
   }
  },
  {
   "type": "Feature",
   "properties": {
    "id": 12
   },
   "geometry": {
    "type": "Point",
    "coordinates": [
     0.543177604675293,
     0.4233454763889313
    ]
   }
  },
  {
   "type": "Feature",
   "properties": {
    "id": 13
   },
   "geometry": {
    "type": "Point",
    "coordinates": [
     0.55,
     0.006
    ]
   }
  },
  {
   "type": "Feature",
   "properties": {
    "id": 14
   },
   "geometry": {
    "type": "Point",
    "coordinates": [
     -0.03189282491803169,
     -0.01003340631723404
    ]
   }
  },
  {
   "type": "Feature",
   "properties": {
    "id": 1001,
    "startid": 1,
    "endid": 2
   },
   "geometry": {
    "type": "MultiLineString",
    "coordinates": [
     [
      [
       1.2514536380767822,
       0.05537603050470352
      ],
      [
       0.8562001270134514,
       0.035230800587433386
      ]
     ]
    ]
   }
  },
  {
   "type": "Feature",
   "properties": {
    "id": 1002,
    "startid": 2,
    "endid": 1
   },
   "geometry": {
    "type": "MultiLineString",
    "coordinates": [
     [
      [
       0.8562001270134514,
       0.035230800587433386
      ],
      [
       1.2514536380767822,
       0.05537603050470352
      ]
     ]
    ]
   }
  },
  {
   "type": "Feature",
   "properties": {
    "id": 1003,
    "startid": 2,
    "endid": 3
   },
   "geometry": {
    "type": "MultiLineString",
    "coordinates": [
     [
      [
       0.8562001270134514,
       0.035230800587433386
      ],
      [
       0.8700631856918335,
       0.6016367077827454
      ]
     ]
    ]
   }
  },
  {
   "type": "Feature",
   "properties": {
    "id": 1004,
    "startid": 3,
    "endid": 2
   },
   "geometry": {
    "type": "MultiLineString",
    "coordinates": [
     [
      [
       0.8700631856918335,
       0.6016367077827454
      ],
      [
       0.8562001270134514,
       0.035230800587433386
      ]
     ]
    ]
   }
  },
  {
   "type": "Feature",
   "properties": {
    "id": 1005,
    "startid": 3,
    "endid": 4
   },
   "geometry": {
    "type": "MultiLineString",
    "coordinates": [
     [
      [
       0.8700631856918335,
       0.6016367077827454
      ],
      [
       1.3574949502944946,
       0.6959717273712158
      ]
     ]
    ]
   }
  },
  {
   "type": "Feature",
   "properties": {
    "id": 1006,
    "startid": 4,
    "endid": 3
   },
   "geometry": {
    "type": "MultiLineString",
    "coordinates": [
     [
      [
       1.3574949502944946,
       0.6959717273712158
      ],
      [
       0.8700631856918335,
       0.6016367077827454
      ]
     ]
    ]
   }
  },
  {
   "type": "Feature",
   "properties": {
    "id": 1007,
    "startid": 4,
    "endid": 5
   },
   "geometry": {
    "type": "MultiLineString",
    "coordinates": [
     [
      [
       1.3574949502944946,
       0.6959717273712158
      ],
      [
       0.9228971561953785,
       0.6118619208368258
      ]
     ]
    ]
   }
  },
  {
   "type": "Feature",
   "properties": {
    "id": 1008,
    "startid": 5,
    "endid": 4
   },
   "geometry": {
    "type": "MultiLineString",
    "coordinates": [
     [
      [
       0.9228971561953785,
       0.6118619208368258
      ],
      [
       1.3574949502944946,
       0.6959717273712158
      ]
     ]
    ]
   }
  },
  {
   "type": "Feature",
   "properties": {
    "id": 1009,
    "startid": 5,
    "endid": 6
   },
   "geometry": {
    "type": "MultiLineString",
    "coordinates": [
     [
      [
       0.9228971561953785,
       0.6118619208368258
      ],
      [
       0.9278939366340637,
       1.2787638902664185
      ]
     ]
    ]
   }
  },
  {
   "type": "Feature",
   "properties": {
    "id": 1010,
    "startid": 6,
    "endid": 5
   },
   "geometry": {
    "type": "MultiLineString",
    "coordinates": [
     [
      [
       0.9278939366340637,
       1.2787638902664185
      ],
      [
       0.9228971561953785,
       0.6118619208368258
      ]
     ]
    ]
   }
  },
  {
   "type": "Feature",
   "properties": {
    "id": 1011,
    "startid": 6,
    "endid": 7
   },
   "geometry": {
    "type": "MultiLineString",
    "coordinates": [
     [
      [
       0.9278939366340637,
       1.2787638902664185
      ],
      [
       1.3605363368988037,
       1.3038166761398315
      ]
     ]
    ]
   }
  },
  {
   "type": "Feature",
   "properties": {
    "id": 1012,
    "startid": 7,
    "endid": 6
   },
   "geometry": {
    "type": "MultiLineString",
    "coordinates": [
     [
      [
       1.3605363368988037,
       1.3038166761398315
      ],
      [
       0.9278939366340637,
       1.2787638902664185
      ]
     ]
    ]
   }
  },
  {
   "type": "Feature",
   "properties": {
    "id": 1013,
    "startid": 7,
    "endid": 8
   },
   "geometry": {
    "type": "MultiLineString",
    "coordinates": [
     [
      [
       1.3605363368988037,
       1.3038166761398315
      ],
      [
       0.58475016466467,
       1.2588936523108134
      ]
     ]
    ]
   }
  },
  {
   "type": "Feature",
   "properties": {
    "id": 1014,
    "startid": 8,
    "endid": 7
   },
   "geometry": {
    "type": "MultiLineString",
    "coordinates": [
     [
      [
       0.58475016466467,
       1.2588936523108134
      ],
      [
       1.3605363368988037,
       1.3038166761398315
      ]
     ]
    ]
   }
  },
  {
   "type": "Feature",
   "properties": {
    "id": 1015,
    "startid": 8,
    "endid": 9
   },
   "geometry": {
    "type": "MultiLineString",
    "coordinates": [
     [
      [
       0.58475016466467,
       1.2588936523108134
      ],
      [
       0.1943252831697464,
       1.2217328548431396
      ]
     ]
    ]
   }
  },
  {
   "type": "Feature",
   "properties": {
    "id": 1016,
    "startid": 9,
    "endid": 8
   },
   "geometry": {
    "type": "MultiLineString",
    "coordinates": [
     [
      [
       0.1943252831697464,
       1.2217328548431396
      ],
      [
       0.58475016466467,
       1.2588936523108134
      ]
     ]
    ]
   }
  },
  {
   "type": "Feature",
   "properties": {
    "id": 1017,
    "startid": 9,
    "endid": 10
   },
   "geometry": {
    "type": "MultiLineString",
    "coordinates": [
     [
      [
       0.1943252831697464,
       1.2217328548431396
      ],
      [
       0.11296285688877106,
       0.8845155239105225
      ]
     ]
    ]
   }
  },
  {
   "type": "Feature",
   "properties": {
    "id": 1018,
    "startid": 10,
    "endid": 9
   },
   "geometry": {
    "type": "MultiLineString",
    "coordinates": [
     [
      [
       0.11296285688877106,
       0.8845155239105225
      ],
      [
       0.1943252831697464,
       1.2217328548431396
      ]
     ]
    ]
   }
  },
  {
   "type": "Feature",
   "properties": {
    "id": 1019,
    "startid": 10,
    "endid": 11
   },
   "geometry": {
    "type": "MultiLineString",
    "coordinates": [
     [
      [
       0.11296285688877106,
       0.8845155239105225
      ],
      [
       0.1270189881324768,
       0.6606267690658569
      ]
     ]
    ]
   }
  },
  {
   "type": "Feature",
   "properties": {
    "id": 1020,
    "startid": 11,
    "endid": 10
   },
   "geometry": {
    "type": "MultiLineString",
    "coordinates": [
     [
      [
       0.1270189881324768,
       0.6606267690658569
      ],
      [
       0.11296285688877106,
       0.8845155239105225
      ]
     ]
    ]
   }
  },
  {
   "type": "Feature",
   "properties": {
    "id": 1021,
    "startid": 11,
    "endid": 12
   },
   "geometry": {
    "type": "MultiLineString",
    "coordinates": [
     [
      [
       0.1270189881324768,
       0.6606267690658569
      ],
      [
       0.543177604675293,
       0.4233454763889313
      ]
     ]
    ]
   }
  },
  {
   "type": "Feature",
   "properties": {
    "id": 1022,
    "startid": 12,
    "endid": 11
   },
   "geometry": {
    "type": "MultiLineString",
    "coordinates": [
     [
      [
       0.543177604675293,
       0.4233454763889313
      ],
      [
       0.1270189881324768,
       0.6606267690658569
      ]
     ]
    ]
   }
  },
  {
   "type": "Feature",
   "properties": {
    "id": 1023,
    "startid": 12,
    "endid": 13
   },
   "geometry": {
    "type": "MultiLineString",
    "coordinates": [
     [
      [
       0.543177604675293,
       0.4233454763889313
      ],
      [
       0.55,
       0.006
      ]
     ]
    ]
   }
  },
  {
   "type": "Feature",
   "properties": {
    "id": 1024,
    "startid": 13,
    "endid": 12
   },
   "geometry": {
    "type": "MultiLineString",
    "coordinates": [
     [
      [
       0.55,
       0.006
      ],
      [
       0.543177604675293,
       0.4233454763889313
      ]
     ]
    ]
   }
  },
  {
   "type": "Feature",
   "properties": {
    "id": 1025,
    "startid": 13,
    "endid": 14
   },
   "geometry": {
    "type": "MultiLineString",
    "coordinates": [
     [
      [
       0.55,
       0.006
      ],
      [
       -0.03189282491803169,
       -0.01003340631723404
      ]
     ]
    ]
   }
  },
  {
   "type": "Feature",
   "properties": {
    "id": 1026,
    "startid": 14,
    "endid": 13
   },
   "geometry": {
    "type": "MultiLineString",
    "coordinates": [
     [
      [
       -0.03189282491803169,
       -0.01003340631723404
      ],
      [
       0.55,
       0.006
      ]
     ]
    ]
   }
  },
  {
   "type": "Feature",
   "properties": {
    "id": 1027,
    "startid": 14,
    "endid": 1
   },
   "geometry": {
    "type": "MultiLineString",
    "coordinates": [
     [
      [
       -0.03189282491803169,
       -0.01003340631723404
      ],
      [
       1.2514536380767822,
       0.05537603050470352
      ]
     ]
    ]
   }
  },
  {
   "type": "Feature",
   "properties": {
    "id": 1028,
    "startid": 1,
    "endid": 14
   },
   "geometry": {
    "type": "MultiLineString",
    "coordinates": [
     [
      [
       1.2514536380767822,
       0.05537603050470352
      ],
      [
       -0.03189282491803169,
       -0.01003340631723404
      ]
     ]
    ]
   }
  }
 ]
}